SatCatId,ObjectName,LaunchYear,OrbitalPeriod,LaunchMass,StatusCode,Inclination,Status,UcsData,OrbitClassEstimated,LaunchSiteCountry,Owner,UseType,Purpose,LaunchVehicleClass,TLE1,TLE2,MeanMotion,Eccentricity,OrbitClass
28194,RADUGA-1 7,2004,1436.76,-1.0,-,12.46,Inactive,0,GSO,Kazakhstan,Russia/USSR,Military,Unknown,Proton,1 28194U 04010A   23228.14106557  .00000112  00000+0  00000+0 0  9997,2 28194  12.4618  28.6222 0003560 159.3480 212.6700  1.00225474 71016,1.00225474,0.000356,GSO
28218,SUPERBIRD-A2,2004,1447.79,-1.0,-,12.39,Inactive,0,GSO,USA,Japan,Unknown,Unknown,Atlas,1 28218U 04011A   23228.57172847  .00000024  00000+0  00000+0 0  9999,2 28218  12.3897  24.7342 0029210  28.9105 145.4135  0.99461813 70151,0.99461813,0.002921,GSO
28220,SHIYAN 1 (SY-1),2004,95.59,204.0,+,97.99,Active,1,LEO,PRC,China,Government,Earth Observation,Long March,1 28220U 04012A   23228.66889328  .00005493  00000+0  37719-3 0  9998,2 28220  97.9867 239.4341 0009716 354.9406   5.1720 15.06380956 54100,15.06380956,0.0009716,LEO
28221,NAXING 1,2004,96.18,-1.0,UNK,98.0,Inactive,0,LEO,PRC,China,Unknown,Unknown,Long March,1 28221U 04012B   23228.72436323  .00002303  00000+0  20464-3 0  9995,2 28221  97.9962 205.9012 0008652 270.7996  89.2233 14.97154441 51833,14.97154441,0.0008652,LEO
28230,GP-B,2004,97.31,-1.0,-,89.82,Inactive,0,LEO,USA,USA,Unknown,Unknown,Delta,1 28230U 04014A   23229.06873544  .00000915  00000+0  11924-3 0  9993,2 28230  89.8160  71.8879 0003186  76.6778 283.4800 14.79876804 41899,14.79876804,0.0003186,LEO
28234,EXPRESS-AM11,2004,1451.11,-1.0,-,11.67,Inactive,0,GSO,Kazakhstan,Russia/USSR,Unknown,Unknown,Unknown,1 28234U 04015A   23229.47690505  .00000051  00000+0  00000+0 0  9997,2 28234  11.6690  30.3643 0001596 304.6869  19.5817  0.99235371 70085,0.99235371,0.0001596,GSO
28238,DIRECTV 7S,2004,1455.78,-1.0,-,2.43,Inactive,0,GSO,Sea Launch Platform,USA,Unknown,Unknown,Zenit,1 28238U 04016A   23228.83762360 -.00000029  00000+0  00000+0 0  9996,2 28238   2.4303  87.3523 0010471  65.2491 207.0157  0.98915707 70550,0.98915707,0.0010471,GSO
28252,AMC-11 (GE-11),2004,1436.12,2340.0,+,0.01,Active,1,GSO,USA,SES,Commercial,Communications,Atlas,1 28252U 04017A   23228.61722524 -.00000054  00000+0  00000+0 0  9995,2 28252   0.0136 297.0930 0001554 236.6776 262.0764  1.00269973 70329,1.00269973,0.0001554,GEO
28254,FORMOSAT-2 (ROCSAT 2),2004,102.79,-1.0,-,98.69,Inactive,0,LEO,USA,Taiwan,Unknown,Unknown,Taurus,1 28254U 04018A   23229.44876019  .00000223  00000+0  17721-3 0  9998,2 28254  98.6925 221.3240 0000924  47.2443 106.0987 14.00861202983897,14.00861202,9.24e-05,LEO
28352,COSMOS 2406,2004,101.99,-1.0,UNK,71.01,Inactive,0,LEO,Kazakhstan,Russia/USSR,Unknown,Unknown,Zenit,1 28352U 04021A   23229.12291979  .00000308  00000+0  19437-3 0  9992,2 28352  71.0052 102.0791 0018858 293.0655  66.8478 14.11839591988654,14.11839591,0.0018858,LEO
28358,INTELSAT 10-02,2004,1436.07,5576.0,+,0.01,Active,1,GSO,Kazakhstan,INTELSAT,Commercial,Communications,Proton,1 28358U 04022A   23228.99583517 -.00000015  00000+0  00000+0 0  9993,2 28358   0.0495 277.5335 0001018 243.7086 161.3802  1.00272425 70245,1.00272425,0.0001018,GEO
28361,NAVSTAR 55 (USA 178),2004,718.0,-1.0,B,54.29,Active,0,MEO,USA,USA,Unknown,Unknown,Delta,1 28361U 04023A   23228.29624733 -.00000014  00000+0  00000+0 0  9996,2 28361  54.2937 128.6684 0147168 271.9122 233.2857  2.00556782140288,2.00556782,0.0147168,MEO
28364,APSTAR 5 (TELSTAR 18),2004,1454.32,-1.0,-,4.31,Inactive,0,GSO,Sea Launch Platform,China,Unknown,Unknown,Falcon,1 28364U 04024A   23227.71457237 -.00000273  00000+0  00000+0 0  9996,2 28364   4.3113  81.7346 0005223   8.7871 264.6146  0.99015447 69978,0.99015447,0.0005223,GSO
28366,APRIZESAT 2,2004,100.21,12.0,+,98.11,Active,1,LEO,Kazakhstan,USA,Commercial,Communications/Technology Development,Dnepr,1 28366U 04025A   23228.46926195  .00000249  00000+0  91609-4 0  9998,2 28366  98.1104  79.5825 0108055 135.2314 225.7657 14.37049146  2852,14.37049146,0.0108055,LEO
28368,DEMETER,2004,97.51,-1.0,-,97.99,Inactive,0,LEO,Kazakhstan,France,Unknown,Unknown,Dnepr,1 28368U 04025C   23229.44620731  .00001932  00000+0  28277-3 0  9996,2 28368  97.9874 188.4812 0001445 122.0735 238.0615 14.76790871 27575,14.76790871,0.0001445,LEO
28369,SAUDICOMSAT 1,2004,99.08,12.0,+,98.5,Active,1,LEO,Kazakhstan,Saudi Arabia,Commercial,Technology Development,Dnepr,1 28369U 04025D   23229.41261106  .00000665  00000+0  17041-3 0  9990,2 28369  98.4968 200.3666 0032205 312.8294  47.0196 14.53370044 13763,14.53370044,0.0032205,LEO
28370,SAUDICOMSAT 2,2004,99.43,12.0,+,98.59,Active,1,LEO,Kazakhstan,Saudi Arabia,Commercial,Technology Development,Dnepr,1 28370U 04025E   23229.43682285  .00000434  00000+0  12660-3 0  9995,2 28370  98.5887 200.4798 0057770 150.8034 209.6408 14.48185161 10294,14.48185161,0.005777,LEO
28371,SAUDISAT 2,2004,98.97,35.0,+,98.44,Active,1,LEO,Kazakhstan,Saudi Arabia,Government,Earth Observation,Dnepr,1 28371U 04025F   23229.45337642  .00000442  00000+0  11347-3 0  9992,2 28371  98.4373 193.6626 0024294 233.6170 126.2786 14.55004543 15226,14.55004543,0.0024294,LEO
28372,APRIZESAT 1,2004,99.3,12.0,+,98.55,Active,1,LEO,Kazakhstan,USA,Commercial,Communications/Technology Development,Dnepr,1 28372U 04025G   23229.44220914  .00000522  00000+0  14437-3 0  9997,2 28372  98.5501 200.2170 0046790  60.8992 299.6875 14.50221746 11880,14.50221746,0.004679,LEO
28373,UNISAT-3,2004,99.55,-1.0,-,98.61,Inactive,0,LEO,Kazakhstan,Italy,Unknown,Unknown,Dnepr,1 28373U 04025H   23228.44231925  .00000588  00000+0  17203-3 0  9997,2 28373  98.6075 196.3259 0066681 238.7031 120.7620 14.46546157  9174,14.46546157,0.0066681,LEO
28375,ECHO (AO-51),2004,99.83,-1.0,-,98.52,Inactive,0,LEO,Kazakhstan,USA,Unknown,Unknown,Delta,1 28375U 04025K   23228.65523385  .00000466  00000+0  14892-3 0  9992,2 28375  98.5241 167.7274 0081673 348.2476  11.6805 14.42470070  6296,14.4247007,0.0081673,LEO
28376,AURA,2004,98.79,2967.0,+,98.21,Active,1,LEO,USA,USA,Government,Earth Observation,Delta,1 28376U 04026A   23228.45400702  .00001037  00000+0  23744-3 0  9990,2 28376  98.2121 171.3170 0001291  65.6804 294.4530 14.57648272 15169,14.57648272,0.0001291,LEO
28378,ANIK F2,2004,1436.08,5910.0,+,0.6,Active,1,GSO,French Guiana,Canada,Commercial,Communications,Ariane,1 28378U 04027A   23229.04551911 -.00000053  00000+0  00000+0 0  9992,2 28378   0.6051  92.6642 0002743  34.0235 103.7474  1.00272692 69970,1.00272692,0.0002743,GEO
28380,COSMOS 2407,2004,104.64,-1.0,+,82.96,Active,0,LEO,Russia,Russia/USSR,Unknown,Unknown,Kosmos,1 28380U 04028A   23229.24023269  .00000075  00000+0  61976-4 0  9995,2 28380  82.9606 121.2146 0037828 266.9994 221.0897 13.76163910957719,13.7616391,0.0037828,LEO
28382,DOUBLESTAR TC-2,2004,595.07,-1.0,-,87.54,Inactive,0,MEO,PRC,China,Unknown,Unknown,Unknown,1 28382U 04029A   23228.79297370  .00016535  00000+0  35967-2 0  9990,2 28382  87.5466 255.1459 7174476 355.2305   0.6963  2.42011645154460,2.42011645,0.7174476,MEO
28393,AMAZONAS 1,2004,1462.56,-1.0,-,6.89,Inactive,0,GSO,Kazakhstan,Spain,Unknown,Unknown,Proton,1 28393U 04031A   23228.28558299 -.00000068  00000+0  00000+0 0  9991,2 28393   6.8877  69.1235 0016214  60.5095 329.2878  0.98457430 69338,0.9845743,0.0016214,GSO
28413,SHIJIAN-6 01A (SJ-6 01A),2004,96.12,-1.0,+,97.68,Active,1,LEO,PRC,China,Government,Space Science,Long March,1 28413U 04035A   23229.06777687  .00004940  00000+0  42100-3 0  9992,2 28413  97.6843 247.7261 0013385  75.6224 284.6483 14.98139272 31669,14.98139272,0.0013385,LEO
28414,SHIJIAN-6 01B (SJ-6 01B),2004,96.27,-1.0,+,97.69,Active,1,LEO,PRC,China,Government,Space Science,Long March,1 28414U 04035B   23229.49583941  .00001154  00000+0  10861-3 0  9991,2 28414  97.6917 247.4453 0007624  71.4559 288.7490 14.95743356 31604,14.95743356,0.0007624,LEO
28417,GSAT-3 (EDUSAT),2004,1450.59,-1.0,-,9.33,Inactive,0,GSO,India,India,Unknown,Unknown,Unknown,1 28417U 04036A   23229.34828743 -.00000263  00000+0  00000+0 0  9992,2 28417   9.3284  49.3291 0005224  96.0436 275.3205  0.99269511 68830,0.99269511,0.0005224,GSO
28419,COSMOS 2408,2004,115.6,225.0,+,82.48,Active,1,LEO,Russia,Russia/USSR,Military,Communications,Kosmos,1 28419U 04037A   23229.51490344  .00000037  00000+0  18696-3 0  9998,2 28419  82.4799 253.9894 0016388  21.2881 338.8879 12.45642981859250,12.45642981,0.0016388,LEO
28420,COSMOS 2409,2004,115.64,225.0,+,82.48,Active,1,LEO,Russia,Russia/USSR,Military,Communications,Kosmos,1 28420U 04037B   23228.45864311  .00000036  00000+0  18396-3 0  9997,2 28420  82.4803 257.4361 0014261  33.9325 326.2665 12.45293036858916,12.45293036,0.0014261,LEO
28446,AMC-15,2004,1436.08,4200.0,+,0.07,Active,1,GSO,Kazakhstan,SES,Commercial,Communications,Proton,1 28446U 04041A   23229.32366198 -.00000091  00000+0  00000+0 0  9998,2 28446   0.0667 286.9845 0002384 228.7052 181.1918  1.00271428 68974,1.00271428,0.0002384,GEO
28451,FENGYUN 2C,2004,1468.12,-1.0,-,10.76,Inactive,0,GSO,PRC,China,Unknown,Unknown,Unknown,1 28451U 04042A   23229.27752259 -.00000185  00000+0  00000+0 0  9990,2 28451  10.7653  38.1185 0004915  26.3794 335.0033  0.98084468 68244,0.98084468,0.0004915,GSO
28454,RITE TARGET 1,2002,100.44,-1.0,UNK,98.62,Inactive,0,LEO,Japan,Japan,Unknown,Unknown,Unknown,1 28454U 02056F   23229.08606440  .00000986  00000+0  37133-3 0  9994,2 28454  98.6153 181.4233 0011010  35.3956 324.7957 14.33668064 55630,14.33668064,0.001101,LEO
28455,RITE TARGET 2,2002,100.43,-1.0,UNK,98.62,Inactive,0,LEO,Japan,Japan,Unknown,Unknown,Unknown,1 28455U 02056G   23228.14782324  .00000985  00000+0  36991-3 0  9997,2 28455  98.6184 181.1741 0011487  39.2967 320.9049 14.33783329 24491,14.33783329,0.0011487,LEO
28463,EXPRESS-AM1,2004,1451.72,-1.0,-,9.47,Inactive,0,GSO,Kazakhstan,Russia/USSR,Unknown,Unknown,Unknown,1 28463U 04043A   23229.48897850 -.00000080  00000+0  00000+0 0  9998,2 28463   9.4751  47.7358 0007195 195.8539 173.7746  0.99192666 68442,0.99192666,0.0007195,GSO
